CCSDS_OMM_VERS = 2.0
CREATION_DATE  = 
ORIGINATOR     = 

OBJECT_NAME    = SL-14 R/B
OBJECT_ID      = 1986-046B
CENTER_NAME    = EARTH
REF_FRAME      = TEME
TIME_SYSTEM    = UTC
MEAN_ELEMENT_THEORY = SGP/SGP4

EPOCH          = 2026-04-01T08:54:24.847488
MEAN_MOTION    = 14.85612784
ECCENTRICITY   = .0023847
INCLINATION    = 82.4810
RA_OF_ASC_NODE = 58.7458
ARG_OF_PERICENTER = 149.6692
MEAN_ANOMALY   = 210.5910

EPHEMERIS_TYPE = 0
CLASSIFICATION_TYPE = U
NORAD_CAT_ID   = 16792
ELEMENT_SET_NO = 999
REV_AT_EPOCH   = 12977
BSTAR          = .61584E-4
MEAN_MOTION_DOT = .56E-5
MEAN_MOTION_DDOT = 0

CCSDS_OMM_VERS = 2.0
CREATION_DATE  = 
ORIGINATOR     = 

OBJECT_NAME    = SL-14 R/B
OBJECT_ID      = 1986-055B
CENTER_NAME    = EARTH
REF_FRAME      = TEME
TIME_SYSTEM    = UTC
MEAN_ELEMENT_THEORY = SGP/SGP4

EPOCH          = 2026-04-01T12:27:46.833120
MEAN_MOTION    = 14.85663347
ECCENTRICITY   = .0017357
INCLINATION    = 82.5169
RA_OF_ASC_NODE = 105.2098
ARG_OF_PERICENTER = 255.4997
MEAN_ANOMALY   = 265.8874

EPHEMERIS_TYPE = 0
CLASSIFICATION_TYPE = U
NORAD_CAT_ID   = 16882
ELEMENT_SET_NO = 999
REV_AT_EPOCH   = 12275
BSTAR          = .60119E-4
MEAN_MOTION_DOT = .546E-5
MEAN_MOTION_DDOT = 0

CCSDS_OMM_VERS = 2.0
CREATION_DATE  = 
ORIGINATOR     = 

OBJECT_NAME    = AJISAI (EGS)
OBJECT_ID      = 1986-061A
CENTER_NAME    = EARTH
REF_FRAME      = TEME
TIME_SYSTEM    = UTC
MEAN_ELEMENT_THEORY = SGP/SGP4

EPOCH          = 2026-04-01T13:06:32.357376
MEAN_MOTION    = 12.44515630
ECCENTRICITY   = .0011356
INCLINATION    = 50.0118
RA_OF_ASC_NODE = 23.0634
ARG_OF_PERICENTER = 345.8582
MEAN_ANOMALY   = 189.0226

EPHEMERIS_TYPE = 0
CLASSIFICATION_TYPE = U
NORAD_CAT_ID   = 16908
ELEMENT_SET_NO = 999
REV_AT_EPOCH   = 47084
BSTAR          = -.30801E-4
MEAN_MOTION_DOT = -.102E-5
MEAN_MOTION_DDOT = 0

CCSDS_OMM_VERS = 2.0
CREATION_DATE  = 
ORIGINATOR     = 

OBJECT_NAME    = SL-14 R/B
OBJECT_ID      = 1987-024B
CENTER_NAME    = EARTH
REF_FRAME      = TEME
TIME_SYSTEM    = UTC
MEAN_ELEMENT_THEORY = SGP/SGP4

EPOCH          = 2026-04-01T09:30:36.392256
MEAN_MOTION    = 14.86154126
ECCENTRICITY   = .0018136
INCLINATION    = 82.5258
RA_OF_ASC_NODE = 71.4157
ARG_OF_PERICENTER = 180.6130
MEAN_ANOMALY   = 179.5068

EPHEMERIS_TYPE = 0
CLASSIFICATION_TYPE = U
NORAD_CAT_ID   = 17567
ELEMENT_SET_NO = 999
REV_AT_EPOCH   = 9150
BSTAR          = .58106E-4
MEAN_MOTION_DOT = .535E-5
MEAN_MOTION_DDOT = 0

CCSDS_OMM_VERS = 2.0
CREATION_DATE  = 
ORIGINATOR     = 

OBJECT_NAME    = COSMOS 1833
OBJECT_ID      = 1987-027A
CENTER_NAME    = EARTH
REF_FRAME      = TEME
TIME_SYSTEM    = UTC
MEAN_ELEMENT_THEORY = SGP/SGP4

EPOCH          = 2026-04-01T12:18:45.595872
MEAN_MOTION    = 14.13045680
ECCENTRICITY   = .002309
INCLINATION    = 70.9167
RA_OF_ASC_NODE = 278.0461
ARG_OF_PERICENTER = 180.6672
MEAN_ANOMALY   = 179.4422

EPHEMERIS_TYPE = 0
CLASSIFICATION_TYPE = U
NORAD_CAT_ID   = 17589
ELEMENT_SET_NO = 999
REV_AT_EPOCH   = 1354
BSTAR          = -.13662E-3
MEAN_MOTION_DOT = -.304E-5
MEAN_MOTION_DDOT = 0

CCSDS_OMM_VERS = 2.0
CREATION_DATE  = 
ORIGINATOR     = 

OBJECT_NAME    = SL-16 R/B
OBJECT_ID      = 1987-027B
CENTER_NAME    = EARTH
REF_FRAME      = TEME
TIME_SYSTEM    = UTC
MEAN_ELEMENT_THEORY = SGP/SGP4

EPOCH          = 2026-04-01T10:05:29.367456
MEAN_MOTION    = 14.17166769
ECCENTRICITY   = .0002886
INCLINATION    = 71.0020
RA_OF_ASC_NODE = 228.5916
ARG_OF_PERICENTER = 86.0495
MEAN_ANOMALY   = 274.0959

EPHEMERIS_TYPE = 0
CLASSIFICATION_TYPE = U
NORAD_CAT_ID   = 17590
ELEMENT_SET_NO = 999
REV_AT_EPOCH   = 1856
BSTAR          = .12468E-3
MEAN_MOTION_DOT = .204E-5
MEAN_MOTION_DDOT = 0

CCSDS_OMM_VERS = 2.0
CREATION_DATE  = 
ORIGINATOR     = 

OBJECT_NAME    = SL-14 R/B
OBJECT_ID      = 1987-038B
CENTER_NAME    = EARTH
REF_FRAME      = TEME
TIME_SYSTEM    = UTC
MEAN_ELEMENT_THEORY = SGP/SGP4

EPOCH          = 2026-04-01T11:17:08.822400
MEAN_MOTION    = 14.85390409
ECCENTRICITY   = .002077
INCLINATION    = 82.4976
RA_OF_ASC_NODE = 275.3407
ARG_OF_PERICENTER = 89.4838
MEAN_ANOMALY   = 270.8758

EPHEMERIS_TYPE = 0
CLASSIFICATION_TYPE = U
NORAD_CAT_ID   = 17912
ELEMENT_SET_NO = 999
REV_AT_EPOCH   = 8261
BSTAR          = .59775E-4
MEAN_MOTION_DOT = .541E-5
MEAN_MOTION_DDOT = 0

CCSDS_OMM_VERS = 2.0
CREATION_DATE  = 
ORIGINATOR     = 

OBJECT_NAME    = COSMOS 1844
OBJECT_ID      = 1987-041A
CENTER_NAME    = EARTH
REF_FRAME      = TEME
TIME_SYSTEM    = UTC
MEAN_ELEMENT_THEORY = SGP/SGP4

EPOCH          = 2026-04-01T04:05:15.325728
MEAN_MOTION    = 14.14559391
ECCENTRICITY   = .0031278
INCLINATION    = 70.9016
RA_OF_ASC_NODE = 346.7602
ARG_OF_PERICENTER = 344.9396
MEAN_ANOMALY   = 15.0791

EPHEMERIS_TYPE = 0
CLASSIFICATION_TYPE = U
NORAD_CAT_ID   = 17973
ELEMENT_SET_NO = 999
REV_AT_EPOCH   = 676
BSTAR          = .2298E-3
MEAN_MOTION_DOT = .395E-5
MEAN_MOTION_DDOT = 0

CCSDS_OMM_VERS = 2.0
CREATION_DATE  = 
ORIGINATOR     = 

OBJECT_NAME    = SL-14 R/B
OBJECT_ID      = 1987-055B
CENTER_NAME    = EARTH
REF_FRAME      = TEME
TIME_SYSTEM    = UTC
MEAN_ELEMENT_THEORY = SGP/SGP4

EPOCH          = 2026-04-01T05:47:04.177248
MEAN_MOTION    = 14.85651450
ECCENTRICITY   = .0019339
INCLINATION    = 82.5001
RA_OF_ASC_NODE = 327.7798
ARG_OF_PERICENTER = 301.4672
MEAN_ANOMALY   = 58.4653

EPHEMERIS_TYPE = 0
CLASSIFICATION_TYPE = U
NORAD_CAT_ID   = 18153
ELEMENT_SET_NO = 999
REV_AT_EPOCH   = 7328
BSTAR          = .49335E-4
MEAN_MOTION_DOT = .453E-5
MEAN_MOTION_DDOT = 0

CCSDS_OMM_VERS = 2.0
CREATION_DATE  = 
ORIGINATOR     = 

OBJECT_NAME    = COSMOS 1867
OBJECT_ID      = 1987-060A
CENTER_NAME    = EARTH
REF_FRAME      = TEME
TIME_SYSTEM    = UTC
MEAN_ELEMENT_THEORY = SGP/SGP4

EPOCH          = 2026-04-01T10:12:59.851008
MEAN_MOTION    = 14.31506595
ECCENTRICITY   = .0014884
INCLINATION    = 65.0098
RA_OF_ASC_NODE = 243.0298
ARG_OF_PERICENTER = 279.9701
MEAN_ANOMALY   = 79.9703

EPHEMERIS_TYPE = 0
CLASSIFICATION_TYPE = U
NORAD_CAT_ID   = 18187
ELEMENT_SET_NO = 999
REV_AT_EPOCH   = 2319
BSTAR          = .26445E-4
MEAN_MOTION_DOT = -.3E-6
MEAN_MOTION_DDOT = 0

CCSDS_OMM_VERS = 2.0
CREATION_DATE  = 
ORIGINATOR     = 

OBJECT_NAME    = SL-14 R/B
OBJECT_ID      = 1988-001B
CENTER_NAME    = EARTH
REF_FRAME      = TEME
TIME_SYSTEM    = UTC
MEAN_ELEMENT_THEORY = SGP/SGP4

EPOCH          = 2026-04-01T07:19:38.516160
MEAN_MOTION    = 14.85552398
ECCENTRICITY   = .0018627
INCLINATION    = 82.5158
RA_OF_ASC_NODE = 174.0964
ARG_OF_PERICENTER = 159.2606
MEAN_ANOMALY   = 200.9371

EPHEMERIS_TYPE = 0
CLASSIFICATION_TYPE = U
NORAD_CAT_ID   = 18749
ELEMENT_SET_NO = 999
REV_AT_EPOCH   = 4538
BSTAR          = .57964E-4
MEAN_MOTION_DOT = .527E-5
MEAN_MOTION_DDOT = 0

CCSDS_OMM_VERS = 2.0
CREATION_DATE  = 
ORIGINATOR     = 

OBJECT_NAME    = COSMOS 1933
OBJECT_ID      = 1988-020A
CENTER_NAME    = EARTH
REF_FRAME      = TEME
TIME_SYSTEM    = UTC
MEAN_ELEMENT_THEORY = SGP/SGP4

EPOCH          = 2026-04-01T09:34:07.022496
MEAN_MOTION    = 15.18202183
ECCENTRICITY   = .0005443
INCLINATION    = 82.5126
RA_OF_ASC_NODE = 228.4379
ARG_OF_PERICENTER = 114.5943
MEAN_ANOMALY   = 245.5859

EPHEMERIS_TYPE = 0
CLASSIFICATION_TYPE = U
NORAD_CAT_ID   = 18958
ELEMENT_SET_NO = 999
REV_AT_EPOCH   = 5367
BSTAR          = .25173E-3
MEAN_MOTION_DOT = .5178E-4
MEAN_MOTION_DDOT = 0

