{"fetched_at":"2026-04-02T05:43:41Z","count":6320,"tles":[{"name":"SL-14 R/B","line1":"1 16792U 86046B   26091.37112092  .00000560  00000+0  61584-4 0  9990","line2":"2 16792  82.4810  58.7458 0023847 149.6692 210.5910 14.85612784129778","category":"Other"},{"name":"COSMOS 1867","line1":"1 18187U 87060A   26091.42569272 -.00000030  00000+0  26445-4 0  9999","line2":"2 18187  65.0098 243.0298 0014884 279.9701  79.9703 14.31506595 23192","category":"Other"},{"name":"SL-14 R/B","line1":"1 17567U 87024B   26091.39625454  .00000535  00000+0  58106-4 0  9999","line2":"2 17567  82.5258  71.4157 0018136 180.6130 179.5068 14.86154126 91500","category":"Other"},{"name":"SL-14 R/B","line1":"1 16882U 86055B   26091.51929205  .00000546  00000+0  60119-4 0  9995","line2":"2 16882  82.5169 105.2098 0017357 255.4997 265.8874 14.85663347122751","category":"Other"},{"name":"COSMOS 1833","line1":"1 17589U 87027A   26091.51302773 -.00000304  00000+0 -13662-3 0  9999","line2":"2 17589  70.9167 278.0461 0023090 180.6672 179.4422 14.13045680 13548","category":"Other"},{"name":"AJISAI (EGS)","line1":"1 16908U 86061A   26091.54620784 -.00000102  00000+0 -30801-4 0  9999","line2":"2 16908  50.0118  23.0634 0011356 345.8582 189.0226 12.44515630470842","category":"Other"},{"name":"SL-16 R/B","line1":"1 17590U 87027B   26091.42047879  .00000204  00000+0  12468-3 0  9994","line2":"2 17590  71.0020 228.5916 0002886  86.0495 274.0959 14.17166769 18567","category":"Other"},{"name":"COSMOS 1933","line1":"1 18958U 88020A   26091.39869239  .00005178  00000+0  25173-3 0  9997","line2":"2 18958  82.5126 228.4379 0005443 114.5943 245.5859 15.18202183 53675","category":"Other"},{"name":"SL-14 R/B","line1":"1 17912U 87038B   26091.47024100  .00000541  00000+0  59775-4 0  9998","line2":"2 17912  82.4976 275.3407 0020770  89.4838 270.8758 14.85390409 82619","category":"Other"},{"name":"COSMOS 1844","line1":"1 17973U 87041A   26091.17031627  .00000395  00000+0  22980-3 0  9992","line2":"2 17973  70.9016 346.7602 0031278 344.9396  15.0791 14.14559391  6763","category":"Other"},{"name":"SL-14 R/B","line1":"1 18749U 88001B   26091.30530690  .00000527  00000+0  57964-4 0  9998","line2":"2 18749  82.5158 174.0964 0018627 159.2606 200.9371 14.85552398 45386","category":"Other"},{"name":"SL-14 R/B","line1":"1 18153U 87055B   26091.24102057  .00000453  00000+0  49335-4 0  9991","line2":"2 18153  82.5001 327.7798 0019339 301.4672  58.4653 14.85651450 73287","category":"Other"}]}